     3.02           N: GNSS NAV DATA    C: BEIDOU           RINEX VERSION / TYPE
Spider v7.5.1.8670  SMO                 20210517 030356 UTC PGM / RUN BY / DATE
BDSA   1.1176D-08 -2.9802D-08 -5.9605D-08  1.1921D-07       IONOSPHERIC CORR
BDSB   1.1878D+05  1.3107D+05  3.9322D+05 -5.8982D+05       IONOSPHERIC CORR
BDUT -2.7939677238D-09-9.769962617D-15  96785  802          TIME SYSTEM CORR
     4     4   573     6                                    LEAP SECONDS
                                                            END OF HEADER
C04 2021 05 17 02 00 00-1.731235533953D-05 6.068123781233D-11 0.000000000000D+00
     1.000000000000D+00-3.659375000000D+02-2.196877124661D-09-1.964150662668D+00
    -1.188879832625D-05 2.502698916942D-04 7.334165275097D-06 6.493421354294D+03
     9.360000000000D+04-1.438893377781D-07-2.693548102553D+00-9.685754776001D-08
     9.796407803707D-02-2.202656250000D+02 1.708526187225D+00 3.286565464222D-09
     7.818182767849D-10                    8.020000000000D+02                   
     2.000000000000D+00 0.000000000000D+00 4.999999969613D-09-8.799999839937D-09
     9.360040000000D+04 0.000000000000D+00                                      
C29 2021 05 17 02 00 00 3.932667896152D-04 5.125677660089D-12 0.000000000000D+00
     1.000000000000D+00 1.378125000000D+01 3.752299360116D-09-2.306554658837D+00
     6.840564310551D-07 3.210986033082D-04 1.287553459406D-06 5.282622673035D+03
     9.360000000000D+04-1.536682248116D-08 2.270551198920D+00 3.399327397346D-08
     9.653480049049D-01 3.309218750000D+02 1.246330305883D+00-7.047793459947D-09
     1.492919260437D-10                    8.020000000000D+02                   
     2.000000000000D+00 0.000000000000D+00-2.000000026703D-10-2.000000026703D-10
     9.687000000000D+04 1.000000000000D+00                                      
